[{"OBJECT_NAME":"RROCI-2","OBJECT_ID":"2024-043J","EPOCH":"2026-03-09T21:40:56.693280","MEAN_MOTION":14.99383357,"ECCENTRICITY":0.00054118,"INCLINATION":97.8279,"RA_OF_ASC_NODE":200.9973,"ARG_OF_PERICENTER":337.3784,"MEAN_ANOMALY":22.7199,"EPHEMERIS_TYPE":0,"CLASSIFICATION_TYPE":"U","NORAD_CAT_ID":59106,"ELEMENT_SET_NO":999,"REV_AT_EPOCH":10988,"BSTAR":0.00035067832,"MEAN_MOTION_DOT":4.232e-5,"MEAN_MOTION_DDOT":0},{"OBJECT_NAME":"PEGASUS DEB","OBJECT_ID":"1994-029AFW","EPOCH":"2026-02-14T00:16:04.061568","MEAN_MOTION":13.82605489,"ECCENTRICITY":0.05286769,"INCLINATION":82.1466,"RA_OF_ASC_NODE":310.1334,"ARG_OF_PERICENTER":353.1786,"MEAN_ANOMALY":6.236,"EPHEMERIS_TYPE":0,"CLASSIFICATION_TYPE":"U","NORAD_CAT_ID":39923,"ELEMENT_SET_NO":999,"REV_AT_EPOCH":3748,"BSTAR":0.0018125184,"MEAN_MOTION_DOT":5.863e-5,"MEAN_MOTION_DDOT":0}]
